{"type": "FeatureCollection", "features": [ {"type": "Feature", "properties": {"norad_id": 43010, "name": "FENGYUN 3D", "group": "weather", "lat": 0.8116673299463526, "lon": 145.23052637869506, "alt_km": 828.2911769031025, "timestamp": "2025-12-24T14:43:28.638512+00:00", "meta": {"OBJECT_NAME": "FENGYUN 3D", "OBJECT_ID": "2017-072A", "EPOCH": "2025-12-24T07:07:05.208384", "MEAN_MOTION": 14.19688038, "ECCENTRICITY": 0.00014834, "INCLINATION": 98.9911, "RA_OF_ASC_NODE": 324.7803, "ARG_OF_PERICENTER": 148.7998, "MEAN_ANOMALY": 211.3266, "EPHEMERIS_TYPE": 0, "CLASSIFICATION_TYPE": "U", "NORAD_CAT_ID": 43010, "ELEMENT_SET_NO": 999, "REV_AT_EPOCH": 42017, "BSTAR": 0.00014400673, "MEAN_MOTION_DOT": 2.58e-06, "MEAN_MOTION_DDOT": 0}, "tle": {"line1": "1 43010U 17072A   25358.29658806  .00000258  00000+0  14401-3 0  9999", "line2": "2 43010  98.9911 324.7803 0001483 148.7998 211.3266 14.19688038420179"}}, "geometry": {"type": "Point", "coordinates": [145.23052637869506, 0.8116673299463526]}}, {"type": "Feature", "properties": {"norad_id": 43013, "name": "NOAA 20 (JPSS-1)", "group": "weather", "lat": -35.26153146429928, "lon": -58.95908733330357, "alt_km": 833.5574981353202, "timestamp": "2025-12-24T14:43:28.638527+00:00", "meta": {"OBJECT_NAME": "NOAA 20 (JPSS-1)", "OBJECT_ID": "2017-073A", "EPOCH": "2025-12-24T04:44:33.826272", "MEAN_MOTION": 14.19528703, "ECCENTRICITY": 0.00020844, "INCLINATION": 98.7614, "RA_OF_ASC_NODE": 294.3698, "ARG_OF_PERICENTER": 70.8267, "MEAN_ANOMALY": 289.3134, "EPHEMERIS_TYPE": 0, "CLASSIFICATION_TYPE": "U", "NORAD_CAT_ID": 43013, "ELEMENT_SET_NO": 999, "REV_AT_EPOCH": 41964, "BSTAR": 6.576462e-05, "MEAN_MOTION_DOT": 9.5e-07, "MEAN_MOTION_DDOT": 0}, "tle": {"line1": "1 43013U 17073A   25358.19761373  .00000095  00000+0  65765-4 0  9995", "line2": "2 43013  98.7614 294.3698 0002084  70.8267 289.3134 14.19528703419647"}}, "geometry": {"type": "Point", "coordinates": [-58.95908733330357, -35.26153146429928]}}, {"type": "Feature", "properties": {"norad_id": 43226, "name": "GOES 17", "group": "weather", "lat": 0.32808508817507526, "lon": -135.2788793721649, "alt_km": 35778.53999338115, "timestamp": "2025-12-24T14:43:28.638549+00:00", "meta": {"OBJECT_NAME": "GOES 17", "OBJECT_ID": "2018-022A", "EPOCH": "2025-12-24T04:38:38.567616", "MEAN_MOTION": 1.00272299, "ECCENTRICITY": 0.00030522, "INCLINATION": 0.4854, "RA_OF_ASC_NODE": 89.0672, "ARG_OF_PERICENTER": 190.8801, "MEAN_ANOMALY": 153.184, "EPHEMERIS_TYPE": 0, "CLASSIFICATION_TYPE": "U", "NORAD_CAT_ID": 43226, "ELEMENT_SET_NO": 999, "REV_AT_EPOCH": 2866, "BSTAR": 0, "MEAN_MOTION_DOT": -1.62e-06, "MEAN_MOTION_DDOT": 0}, "tle": {"line1": "1 43226U 18022A   25358.19350194 -.00000162  00000+0  00000+0 0  9993", "line2": "2 43226   0.4854  89.0672 0003052 190.8801 153.1840  1.00272299 28665"}}, "geometry": {"type": "Point", "coordinates": [-135.2788793721649, 0.32808508817507526]}}, {"type": "Feature", "properties": {"norad_id": 43491, "name": "FENGYUN 2H", "group": "weather", "lat": -1.8985854230293053, "lon": 33.63552357681332, "alt_km": 35794.947566901545, "timestamp": "2025-12-24T14:43:28.638572+00:00", "meta": {"OBJECT_NAME": "FENGYUN 2H", "OBJECT_ID": "2018-050A", "EPOCH": "2025-12-23T23:46:50.748960", "MEAN_MOTION": 1.00270747, "ECCENTRICITY": 0.00023794, "INCLINATION": 2.5781, "RA_OF_ASC_NODE": 81.2114, "ARG_OF_PERICENTER": 166.455, "MEAN_ANOMALY": 281.1598, "EPHEMERIS_TYPE": 0, "CLASSIFICATION_TYPE": "U", "NORAD_CAT_ID": 43491, "ELEMENT_SET_NO": 999, "REV_AT_EPOCH": 2768, "BSTAR": 0, "MEAN_MOTION_DOT": -1.1e-06, "MEAN_MOTION_DDOT": 0}, "tle": {"line1": "1 43491U 18050A   25357.99086515 -.00000110  00000+0  00000+0 0  9991", "line2": "2 43491   2.5781  81.2114 0002379 166.4550 281.1598  1.00270747 27686"}}, "geometry": {"type": "Point", "coordinates": [33.63552357681332, -1.8985854230293053]}}, {"type": "Feature", "properties": {"norad_id": 43689, "name": "METOP-C", "group": "weather", "lat": -8.98105475365256, "lon": -125.18508318725823, "alt_km": 824.8177328437514, "timestamp": "2025-12-24T14:43:28.638602+00:00", "meta": {"OBJECT_NAME": "METOP-C", "OBJECT_ID": "2018-087A", "EPOCH": "2025-12-24T05:23:30.557472", "MEAN_MOTION": 14.21488649, "ECCENTRICITY": 6.8e-05, "INCLINATION": 98.6913, "RA_OF_ASC_NODE": 55.8174, "ARG_OF_PERICENTER": 18.0942, "MEAN_ANOMALY": 342.0259, "EPHEMERIS_TYPE": 0, "CLASSIFICATION_TYPE": "U", "NORAD_CAT_ID": 43689, "ELEMENT_SET_NO": 999, "REV_AT_EPOCH": 36997, "BSTAR": 7.7479551e-05, "MEAN_MOTION_DOT": 1.26e-06, "MEAN_MOTION_DDOT": 0}, "tle": {"line1": "1 43689U 18087A   25358.22465923  .00000126  00000+0  77480-4 0  9998", "line2": "2 43689  98.6913  55.8174 0000680  18.0942 342.0259 14.21488649369972"}}, "geometry": {"type": "Point", "coordinates": [-125.18508318725823, -8.98105475365256]}}, {"type": "Feature", "properties": {"norad_id": 43823, "name": "GEO-KOMPSAT-2A", "group": "weather", "lat": -0.011449976553200462, "lon": 82.49865419641888, "alt_km": 35785.5682057477, "timestamp": "2025-12-24T14:43:28.638640+00:00", "meta": {"OBJECT_NAME": "GEO-KOMPSAT-2A", "OBJECT_ID": "2018-100A", "EPOCH": "2025-12-23T23:16:38.882208", "MEAN_MOTION": 1.00269322, "ECCENTRICITY": 3.088e-05, "INCLINATION": 0.0454, "RA_OF_ASC_NODE": 176.4118, "ARG_OF_PERICENTER": 270.2699, "MEAN_ANOMALY": 123.4879, "EPHEMERIS_TYPE": 0, "CLASSIFICATION_TYPE": "U", "NORAD_CAT_ID": 43823, "ELEMENT_SET_NO": 999, "REV_AT_EPOCH": 2587, "BSTAR": 0, "MEAN_MOTION_DOT": -3.23e-06, "MEAN_MOTION_DDOT": 0}, "tle": {"line1": "1 43823U 18100A   25357.96989447 -.00000323  00000+0  00000+0 0  9995", "line2": "2 43823   0.0454 176.4118 0000308 270.2699 123.4879  1.00269322 25870"}}, "geometry": {"type": "Point", "coordinates": [82.49865419641888, -0.011449976553200462]}}, {"type": "Feature", "properties": {"norad_id": 44387, "name": "METEOR-M2 2", "group": "weather", "lat": 22.688672928827476, "lon": -25.26746086215106, "alt_km": 810.6817440322357, "timestamp": "2025-12-24T14:43:28.638659+00:00", "meta": {"OBJECT_NAME": "METEOR-M2 2", "OBJECT_ID": "2019-038A", "EPOCH": "2025-12-24T06:11:13.523424", "MEAN_MOTION": 14.24296724, "ECCENTRICITY": 0.00017577, "INCLINATION": 98.8983, "RA_OF_ASC_NODE": 338.1279, "ARG_OF_PERICENTER": 125.5641, "MEAN_ANOMALY": 234.5701, "EPHEMERIS_TYPE": 0, "CLASSIFICATION_TYPE": "U", "NORAD_CAT_ID": 44387, "ELEMENT_SET_NO": 999, "REV_AT_EPOCH": 33639, "BSTAR": 0.00014102741, "MEAN_MOTION_DOT": 2.8e-06, "MEAN_MOTION_DDOT": 0}, "tle": {"line1": "1 44387U 19038A   25358.25779541  .00000280  00000+0  14103-3 0  9991", "line2": "2 44387  98.8983 338.1279 0001757 125.5641 234.5701 14.24296724336397"}}, "geometry": {"type": "Point", "coordinates": [-25.26746086215106, 22.688672928827476]}}, {"type": "Feature", "properties": {"norad_id": 47719, "name": "ARKTIKA-M 1", "group": "weather", "lat": 48.47088427267953, "lon": 117.22811549333939, "alt_km": 26404.32291707399, "timestamp": "2025-12-24T14:43:28.638680+00:00", "meta": {"OBJECT_NAME": "ARKTIKA-M 1", "OBJECT_ID": "2021-016A", "EPOCH": "2025-12-23T01:01:51.743136", "MEAN_MOTION": 2.00630806, "ECCENTRICITY": 0.72093828, "INCLINATION": 63.1759, "RA_OF_ASC_NODE": 82.5898, "ARG_OF_PERICENTER": 269.1646, "MEAN_ANOMALY": 15.5425, "EPHEMERIS_TYPE": 0, "CLASSIFICATION_TYPE": "U", "NORAD_CAT_ID": 47719, "ELEMENT_SET_NO": 999, "REV_AT_EPOCH": 3525, "BSTAR": 0, "MEAN_MOTION_DOT": -6.7e-07, "MEAN_MOTION_DDOT": 0}, "tle": {"line1": "1 47719U 21016A   25357.04295999 -.00000067  00000+0  00000+0 0  9999", "line2": "2 47719  63.1759  82.5898 7209382 269.1646  15.5425  2.00630806 35258"}}, "geometry": {"type": "Point", "coordinates": [117.22811549333939, 48.47088427267953]}}, {"type": "Feature", "properties": {"norad_id": 49008, "name": "FENGYUN 3E", "group": "weather", "lat": 25.750532237067937, "lon": -176.74744973803735, "alt_km": 824.3550394330232, "timestamp": "2025-12-24T14:43:28.638710+00:00", "meta": {"OBJECT_NAME": "FENGYUN 3E", "OBJECT_ID": "2021-062A", "EPOCH": "2025-12-24T07:14:15.216000", "MEAN_MOTION": 14.1988119, "ECCENTRICITY": 8.668e-05, "INCLINATION": 98.7473, "RA_OF_ASC_NODE": 358.6853, "ARG_OF_PERICENTER": 193.4996, "MEAN_ANOMALY": 166.6157, "EPHEMERIS_TYPE": 0, "CLASSIFICATION_TYPE": "U", "NORAD_CAT_ID": 49008, "ELEMENT_SET_NO": 999, "REV_AT_EPOCH": 23176, "BSTAR": 3.0166187e-05, "MEAN_MOTION_DOT": 2e-07, "MEAN_MOTION_DDOT": 0}, "tle": {"line1": "1 49008U 21062A   25358.30156500  .00000020  00000+0  30166-4 0  9996", "line2": "2 49008  98.7473 358.6853 0000866 193.4996 166.6157 14.19881190231763"}}, "geometry": {"type": "Point", "coordinates": [-176.74744973803735, 25.750532237067937]}}, {"type": "Feature", "properties": {"norad_id": 51850, "name": "GOES 18", "group": "weather", "lat": -0.0011107749352562096, "lon": 177.24384600709135, "alt_km": 35787.566648939086, "timestamp": "2025-12-24T14:43:28.638729+00:00", "meta": {"OBJECT_NAME": "GOES 18", "OBJECT_ID": "2022-021A", "EPOCH": "2025-12-24T07:39:36.756288", "MEAN_MOTION": 1.00271078, "ECCENTRICITY": 3.752e-05, "INCLINATION": 0.017, "RA_OF_ASC_NODE": 183.9867, "ARG_OF_PERICENTER": 139.7411, "MEAN_ANOMALY": 107.2693, "EPHEMERIS_TYPE": 0, "CLASSIFICATION_TYPE": "U", "NORAD_CAT_ID": 51850, "ELEMENT_SET_NO": 999, "REV_AT_EPOCH": 483, "BSTAR": 0, "MEAN_MOTION_DOT": 1.18e-06, "MEAN_MOTION_DDOT": 0}, "tle": {"line1": "1 51850U 22021A   25358.31917542  .00000118  00000+0  00000+0 0  9999", "line2": "2 51850   0.0170 183.9867 0000375 139.7411 107.2693  1.00271078  4831"}}, "geometry": {"type": "Point", "coordinates": [177.24384600709135, -0.0011107749352562096]}}]}